{
  "type": "FeatureCollection",
  "features": [
    {
      "type": "Feature",
      "properties": {
        "norad_id": 37427,
        "name": "FENGYUN 1C DEB",
        "group": "fengyun-1c-debris",
        "lat": 81.20005526916208,
        "lon": 15.759594516871175,
        "alt_km": 628.9209374187894,
        "timestamp": "2025-12-02T08:59:33.003376+00:00",
        "meta_object_name": "FENGYUN 1C DEB",
        "meta_object_id": "1999-025EGV",
        "meta_epoch": "2025-11-25T03:26:10.747680",
        "meta_mean_motion": 14.97768919,
        "meta_eccentricity": 0.01887185,
        "meta_inclination": 98.6232,
        "meta_ra_of_asc_node": 109.1733,
        "meta_arg_of_pericenter": 355.7363,
        "meta_mean_anomaly": 4.2239,
        "meta_ephemeris_type": 0,
        "meta_classification_type": "U",
        "meta_norad_cat_id": 37427,
        "meta_element_set_no": 999,
        "meta_rev_at_epoch": 60059,
        "meta_bstar": 0.00046451943,
        "meta_mean_motion_dot": 7.8e-05,
        "meta_mean_motion_ddot": 0,
        "tle_line1": "1 37427U 99025EGV 25329.14317995  .00007800  00000+0  46452-3 0  9996",
        "tle_line2": "2 37427  98.6232 109.1733 0188718 355.7363   4.2239 14.97768919600595"
      },
      "geometry": {
        "type": "Point",
        "coordinates": [
          15.759594516871175,
          81.20005526916208
        ]
      }
    },
    {
      "type": "Feature",
      "properties": {
        "norad_id": 37428,
        "name": "FENGYUN 1C DEB",
        "group": "fengyun-1c-debris",
        "lat": 57.24222553512258,
        "lon": 32.290035402595876,
        "alt_km": 732.9150208538786,
        "timestamp": "2025-12-02T08:59:33.003387+00:00",
        "meta_object_name": "FENGYUN 1C DEB",
        "meta_object_id": "1999-025EGW",
        "meta_epoch": "2025-11-04T08:59:22.602624",
        "meta_mean_motion": 14.34038787,
        "meta_eccentricity": 0.00551491,
        "meta_inclination": 97.7239,
        "meta_ra_of_asc_node": 175.0839,
        "meta_arg_of_pericenter": 216.1318,
        "meta_mean_anomaly": 143.6138,
        "meta_ephemeris_type": 0,
        "meta_classification_type": "U",
        "meta_norad_cat_id": 37428,
        "meta_element_set_no": 999,
        "meta_rev_at_epoch": 62886,
        "meta_bstar": 0.0019041151,
        "meta_mean_motion_dot": 5.377e-05,
        "meta_mean_motion_ddot": 0,
        "tle_line1": "1 37428U 99025EGW 25308.37456716  .00005377  00000+0  19041-2 0  9994",
        "tle_line2": "2 37428  97.7239 175.0839 0055149 216.1318 143.6138 14.34038787628863"
      },
      "geometry": {
        "type": "Point",
        "coordinates": [
          32.290035402595876,
          57.24222553512258
        ]
      }
    },
    {
      "type": "Feature",
      "properties": {
        "norad_id": 37430,
        "name": "FENGYUN 1C DEB",
        "group": "fengyun-1c-debris",
        "lat": 52.25677112854252,
        "lon": 38.92933642920598,
        "alt_km": 781.5616289028176,
        "timestamp": "2025-12-02T08:59:33.003397+00:00",
        "meta_object_name": "FENGYUN 1C DEB",
        "meta_object_id": "1999-025EGY",
        "meta_epoch": "2025-11-28T03:54:07.567776",
        "meta_mean_motion": 14.28755516,
        "meta_eccentricity": 0.00192551,
        "meta_inclination": 98.7665,
        "meta_ra_of_asc_node": 46.1957,
        "meta_arg_of_pericenter": 113.3298,
        "meta_mean_anomaly": 246.9912,
        "meta_ephemeris_type": 0,
        "meta_classification_type": "U",
        "meta_norad_cat_id": 37430,
        "meta_element_set_no": 999,
        "meta_rev_at_epoch": 61493,
        "meta_bstar": 0.0019671813,
        "meta_mean_motion_dot": 4.92e-05,
        "meta_mean_motion_ddot": 0,
        "tle_line1": "1 37430U 99025EGY 25332.16258759  .00004920  00000+0  19672-2 0  9991",
        "tle_line2": "2 37430  98.7665  46.1957 0019255 113.3298 246.9912 14.28755516614931"
      },
      "geometry": {
        "type": "Point",
        "coordinates": [
          38.92933642920598,
          52.25677112854252
        ]
      }
    },
    {
      "type": "Feature",
      "properties": {
        "norad_id": 37432,
        "name": "FENGYUN 1C DEB",
        "group": "fengyun-1c-debris",
        "lat": -63.43036677500541,
        "lon": 6.609143288042417,
        "alt_km": 603.9854159555398,
        "timestamp": "2025-12-02T08:59:33.003407+00:00",
        "meta_object_name": "FENGYUN 1C DEB",
        "meta_object_id": "1999-025EHA",
        "meta_epoch": "2025-12-01T18:24:28.324800",
        "meta_mean_motion": 14.5327086,
        "meta_eccentricity": 0.0182793,
        "meta_inclination": 98.1853,
        "meta_ra_of_asc_node": 349.2883,
        "meta_arg_of_pericenter": 322.0459,
        "meta_mean_anomaly": 36.7969,
        "meta_ephemeris_type": 0,
        "meta_classification_type": "U",
        "meta_norad_cat_id": 37432,
        "meta_element_set_no": 999,
        "meta_rev_at_epoch": 8217,
        "meta_bstar": 0.0009622,
        "meta_mean_motion_dot": 4.929e-05,
        "meta_mean_motion_ddot": 0,
        "tle_line1": "1 37432U 99025EHA 25335.76699450  .00004929  00000+0  96220-3 0  9993",
        "tle_line2": "2 37432  98.1853 349.2883 0182793 322.0459  36.7969 14.53270860 82171"
      },
      "geometry": {
        "type": "Point",
        "coordinates": [
          6.609143288042417,
          -63.43036677500541
        ]
      }
    },
    {
      "type": "Feature",
      "properties": {
        "norad_id": 37435,
        "name": "FENGYUN 1C DEB",
        "group": "fengyun-1c-debris",
        "lat": -71.53862307224182,
        "lon": 40.009178309134555,
        "alt_km": 838.7707108141667,
        "timestamp": "2025-12-02T08:59:33.003417+00:00",
        "meta_object_name": "FENGYUN 1C DEB",
        "meta_object_id": "1999-025EHD",
        "meta_epoch": "2025-11-29T08:44:14.359776",
        "meta_mean_motion": 14.22271668,
        "meta_eccentricity": 0.00410088,
        "meta_inclination": 98.6499,
        "meta_ra_of_asc_node": 9.9283,
        "meta_arg_of_pericenter": 53.3524,
        "meta_mean_anomaly": 307.1414,
        "meta_ephemeris_type": 0,
        "meta_classification_type": "U",
        "meta_norad_cat_id": 37435,
        "meta_element_set_no": 999,
        "meta_rev_at_epoch": 88749,
        "meta_bstar": 0.00099361212,
        "meta_mean_motion_dot": 2.183e-05,
        "meta_mean_motion_ddot": 0,
        "tle_line1": "1 37435U 99025EHD 25333.36405509  .00002183  00000+0  99361-3 0  9999",
        "tle_line2": "2 37435  98.6499   9.9283 0041008  53.3524 307.1414 14.22271668887490"
      },
      "geometry": {
        "type": "Point",
        "coordinates": [
          40.009178309134555,
          -71.53862307224182
        ]
      }
    },
    {
      "type": "Feature",
      "properties": {
        "norad_id": 37436,
        "name": "FENGYUN 1C DEB",
        "group": "fengyun-1c-debris",
        "lat": -67.89965853217548,
        "lon": -171.80735498893466,
        "alt_km": 866.4148286820309,
        "timestamp": "2025-12-02T08:59:33.003428+00:00",
        "meta_object_name": "FENGYUN 1C DEB",
        "meta_object_id": "1999-025EHE",
        "meta_epoch": "2025-11-28T08:11:21.765696",
        "meta_mean_motion": 14.06306083,
        "meta_eccentricity": 0.00592044,
        "meta_inclination": 98.9395,
        "meta_ra_of_asc_node": 27.0172,
        "meta_arg_of_pericenter": 187.9897,
        "meta_mean_anomaly": 172.0334,
        "meta_ephemeris_type": 0,
        "meta_classification_type": "U",
        "meta_norad_cat_id": 37436,
        "meta_element_set_no": 999,
        "meta_rev_at_epoch": 63796,
        "meta_bstar": 0.00051758913,
        "meta_mean_motion_dot": 8.23e-06,
        "meta_mean_motion_ddot": 0,
        "tle_line1": "1 37436U 99025EHE 25332.34122414  .00000823  00000+0  51759-3 0  9996",
        "tle_line2": "2 37436  98.9395  27.0172 0059204 187.9897 172.0334 14.06306083637968"
      },
      "geometry": {
        "type": "Point",
        "coordinates": [
          -171.80735498893466,
          -67.89965853217548
        ]
      }
    },
    {
      "type": "Feature",
      "properties": {
        "norad_id": 37437,
        "name": "FENGYUN 1C DEB",
        "group": "fengyun-1c-debris",
        "lat": 60.355294874051566,
        "lon": -46.81426355254215,
        "alt_km": 745.0632463821921,
        "timestamp": "2025-12-02T08:59:33.003438+00:00",
        "meta_object_name": "FENGYUN 1C DEB",
        "meta_object_id": "1999-025EHF",
        "meta_epoch": "2025-11-30T18:36:25.322976",
        "meta_mean_motion": 14.18810149,
        "meta_eccentricity": 0.0113368,
        "meta_inclination": 98.5859,
        "meta_ra_of_asc_node": 327.0314,
        "meta_arg_of_pericenter": 82.7284,
        "meta_mean_anomaly": 94.5607,
        "meta_ephemeris_type": 0,
        "meta_classification_type": "U",
        "meta_norad_cat_id": 37437,
        "meta_element_set_no": 999,
        "meta_rev_at_epoch": 63821,
        "meta_bstar": 0.0004989187,
        "meta_mean_motion_dot": 1.064e-05,
        "meta_mean_motion_ddot": 0,
        "tle_line1": "1 37437U 99025EHF 25334.77529309  .00001064  00000+0  49892-3 0  9993",
        "tle_line2": "2 37437  98.5859 327.0314 0113368  82.7284  94.5607 14.18810149638211"
      },
      "geometry": {
        "type": "Point",
        "coordinates": [
          -46.81426355254215,
          60.355294874051566
        ]
      }
    }
  ]
}